{"fetched_at":"2026-03-29T16:36:15Z","count":15609,"tles":[{"name":"STARLINK-35631","line1":"1 66121U 25237H   26087.86585426  .00027049  00000+0  92176-3 0  9991","line2":"2 66121  53.1607 310.7533 0000642 118.4092 241.6973 15.30210650 25540","category":"Starlink"}]}